{
  "type": "FeatureCollection",
  "features": [
    {
      "type": "Feature",
      "geometry": {
        "type": "Point",
        "coordinates": [
          38.1157,
          20.2802
        ]
      },
      "properties": {
        "titulo_evento": "Saudis plan assault on Houthis to break Red Sea chokehold",
        "descricao": "More than 100,000 Yemeni troops could be mobilized in the offensive, depending on the scale, officials said.",
        "url_fonte": "https://www.defensenews.com/global/mideast-africa/2026/10/02/saudis-plan-assault-on-houthis-to-break-red-sea-chokehold/",
        "categoria": "Defesa/Conflito (Defense News)",
        "data_noticia": "02/10/2026 19:00"
      }
    },
    {
      "type": "Feature",
      "geometry": {
        "type": "Point",
        "coordinates": [
          12.5674,
          41.8719
        ]
      },
      "properties": {
        "titulo_evento": "Ukraine war fatigue fuels defense-spending downgrade plan in Italy",
        "descricao": "Italian military planners risk losing out on billions in funding as government and opposition parties seek to cut defense spending and Ukraine support.",
        "url_fonte": "https://www.defensenews.com/global/europe/2026/10/02/ukraine-war-fatigue-fuels-defense-spending-downgrade-plan-in-italy/",
        "categoria": "Defesa/Conflito (Defense News)",
        "data_noticia": "02/10/2026 15:29"
      }
    },
    {
      "type": "Feature",
      "geometry": {
        "type": "Point",
        "coordinates": [
          104.1954,
          35.8617
        ]
      },
      "properties": {
        "titulo_evento": "Taiwan’s first two F-16V fighter jets arrive to bolster defenses against China",
        "descricao": "The first two of a batch of 66 new F-16V Block 70 fighter jets ordered in 2019 arrived in Taiwan on Friday after months of delays.",
        "url_fonte": "https://www.defensenews.com/global/asia-pacific/2026/10/02/taiwans-first-two-f-16v-fighter-jets-arrive-to-bolster-defenses-against-china/",
        "categoria": "Defesa/Conflito (Defense News)",
        "data_noticia": "02/10/2026 14:15"
      }
    },
    {
      "type": "Feature",
      "geometry": {
        "type": "Point",
        "coordinates": [
          104.1954,
          35.8617
        ]
      },
      "properties": {
        "titulo_evento": "US leaders send mixed messages to Indo-Pacific nations",
        "descricao": "U.S. military allies in the Indo-Pacific region are wary of President Donald Trump's apparent overtures to China's leader Xi Jinping.",
        "url_fonte": "https://www.defensenews.com/global/asia-pacific/2026/10/02/us-leaders-send-mixed-messages-to-indo-pacific-nations/",
        "categoria": "Defesa/Conflito (Defense News)",
        "data_noticia": "02/10/2026 11:55"
      }
    },
    {
      "type": "Feature",
      "geometry": {
        "type": "Point",
        "coordinates": [
          31.1656,
          48.3794
        ]
      },
      "properties": {
        "titulo_evento": "Ukraine deploys FP-7 tactical ballistic missile in combat for first time, Zelenskyy says ",
        "descricao": "Ukraine has deployed its FP-7 tactical ballistic missile in combat for the first time, President Volodymyr Zelenskyy said on Thursday.",
        "url_fonte": "https://www.defensenews.com/industry/techwatch/2026/10/01/ukraine-deploys-fp-7-tactical-ballistic-missile-in-combat-for-first-time-zelenskyy-says/",
        "categoria": "Defesa/Conflito (Defense News)",
        "data_noticia": "01/10/2026 19:54"
      }
    },
    {
      "type": "Feature",
      "geometry": {
        "type": "Point",
        "coordinates": [
          31.1656,
          48.3794
        ]
      },
      "properties": {
        "titulo_evento": "Ukraine has struck Russian factory vital for Moscow’s missiles, private intelligence firm says",
        "descricao": "The documents, Dallas Analytics said, place AOMZ in the production chains of “at least seven” missile programs, including the Kh-101 cruise missile.",
        "url_fonte": "https://www.defensenews.com/global/europe/2026/10/01/ukraine-has-struck-russian-factory-vital-for-moscows-missiles-private-intelligence-firm-says/",
        "categoria": "Defesa/Conflito (Defense News)",
        "data_noticia": "01/10/2026 12:13"
      }
    },
    {
      "type": "Feature",
      "geometry": {
        "type": "Point",
        "coordinates": [
          31.1656,
          48.3794
        ]
      },
      "properties": {
        "titulo_evento": "Jaw-Jaw With Belarus, Revisited Amid Ukraine War",
        "descricao": "<p>In 2021, Michael Kimmage wrote, &#8220;Belarus and the Ukraine Trap,&#8221; where he argued the United States should adopt a realistic diplomatic relationship with Belarus that takes into account its strategic partnership with Russia and learns fr...",
        "url_fonte": "https://warontherocks.com/jaw-jaw-with-belarus-revisited-amid-ukraine-war/",
        "categoria": "Defesa/Conflito (War on the Rocks)",
        "data_noticia": "01/10/2026 17:30"
      }
    },
    {
      "type": "Feature",
      "geometry": {
        "type": "Point",
        "coordinates": [
          53.688,
          32.4279
        ]
      },
      "properties": {
        "titulo_evento": "Iran war live: Fighting intensifies in Yemen, hundreds killed or injured",
        "descricao": "Fighting intensifies across Yemen as the army says 474 attacks in 24 hours killed or wounded 1,540 Houthi fighters.",
        "url_fonte": "https://www.aljazeera.com/news/liveblog/2026/10/3/iran-war-live-fighting-intensifies-in-yemen-hundreds-killed-or-injured?traffic_source=rss",
        "categoria": "Defesa/Conflito (Al Jazeera)",
        "data_noticia": "03/10/2026 00:00"
      }
    },
    {
      "type": "Feature",
      "geometry": {
        "type": "Point",
        "coordinates": [
          127.05,
          40.0
        ]
      },
      "properties": {
        "titulo_evento": "North Korea fires ballistic missile towards the sea, South Korea says",
        "descricao": "A ballistic missile is fired from the North Korean port city of Wonsan, South Korea&#039;s military says.",
        "url_fonte": "https://www.aljazeera.com/news/2026/10/2/north-korea-fires-ballistic-missile-towards-the-sea-south-korea-says?traffic_source=rss",
        "categoria": "Defesa/Conflito (Al Jazeera)",
        "data_noticia": "02/10/2026 23:55"
      }
    },
    {
      "type": "Feature",
      "geometry": {
        "type": "Point",
        "coordinates": [
          -106.3468,
          56.1304
        ]
      },
      "properties": {
        "titulo_evento": "Why Carney’s economic overhaul is clashing with Canada’s unions",
        "descricao": "Unions say proposed changes to Canada&#039;s labour laws could weaken workers’ right to strike.",
        "url_fonte": "https://www.aljazeera.com/economy/2026/10/2/why-carneys-economic-overhaul-is-clashing-with-canadas-unions?traffic_source=rss",
        "categoria": "Defesa/Conflito (Al Jazeera)",
        "data_noticia": "02/10/2026 22:14"
      }
    },
    {
      "type": "Feature",
      "geometry": {
        "type": "Point",
        "coordinates": [
          34.8516,
          31.0461
        ]
      },
      "properties": {
        "titulo_evento": "Israel could’ve ended Gaza war, freed captives sooner: Israel ex-negotiator",
        "descricao": "Retired General Nitzan Alon says more captives could have returned alive and a deal was possible &#039;maybe a year earlier&#039;.",
        "url_fonte": "https://www.aljazeera.com/news/2026/10/2/israel-couldve-ended-gaza-war-freed-captives-sooner-israel-ex-negotiator?traffic_source=rss",
        "categoria": "Defesa/Conflito (Al Jazeera)",
        "data_noticia": "02/10/2026 21:53"
      }
    },
    {
      "type": "Feature",
      "geometry": {
        "type": "Point",
        "coordinates": [
          2.2137,
          46.2276
        ]
      },
      "properties": {
        "titulo_evento": "France held 1-1 by Italy in Zidane home debut after Olise stunner",
        "descricao": "Italy&#039;s Alessandro Bastoni cancels out Michael Olise&#039;s opener for France in 1-1 UEFA Nations League draw in Saint-Denis.",
        "url_fonte": "https://www.aljazeera.com/sports/2026/10/2/france-held-by-italy-in-zidanes-homecoming-after-olise-stunner?traffic_source=rss",
        "categoria": "Política (Al Jazeera)",
        "data_noticia": "02/10/2026 21:24"
      }
    },
    {
      "type": "Feature",
      "geometry": {
        "type": "Point",
        "coordinates": [
          104.1954,
          35.8617
        ]
      },
      "properties": {
        "titulo_evento": "Latin America sees China as more positive global influence than US: Poll",
        "descricao": "Annual Latinobarometro survey finds views of China’s influence improving as perceptions of US influence worsen.\n",
        "url_fonte": "https://www.aljazeera.com/news/2026/10/2/latin-america-sees-china-as-more-positive-global-influence-than-us-poll?traffic_source=rss",
        "categoria": "Política (Al Jazeera)",
        "data_noticia": "02/10/2026 20:52"
      }
    },
    {
      "type": "Feature",
      "geometry": {
        "type": "Point",
        "coordinates": [
          -77.0369,
          38.9072
        ]
      },
      "properties": {
        "titulo_evento": "Iraq grants Iranian airlines 40 daily Najaf flights after US exemption",
        "descricao": "Mahan Air is excluded from the agreement as Baghdad says Washington granted its request for a waiver. ",
        "url_fonte": "https://www.aljazeera.com/news/2026/10/2/iraq-grants-iranian-airlines-40-daily-najaf-flights-after-us-exemption?traffic_source=rss",
        "categoria": "Política (Al Jazeera)",
        "data_noticia": "02/10/2026 20:32"
      }
    },
    {
      "type": "Feature",
      "geometry": {
        "type": "Point",
        "coordinates": [
          34.8516,
          31.0461
        ]
      },
      "properties": {
        "titulo_evento": "Arab party leader withdraws from Israeli elections",
        "descricao": "Palestinian politician Sami Abu Shehadeh withdrew from Israel’s upcoming election.",
        "url_fonte": "https://www.aljazeera.com/video/newsfeed/2026/10/2/arab-party-leader-withdraws-from-israeli-elections?traffic_source=rss",
        "categoria": "Política (Al Jazeera)",
        "data_noticia": "02/10/2026 19:10"
      }
    },
    {
      "type": "Feature",
      "geometry": {
        "type": "Point",
        "coordinates": [
          34.8516,
          31.0461
        ]
      },
      "properties": {
        "titulo_evento": "Israel’s Supreme Court overturns election panel ban on Arab parties",
        "descricao": "Court reinstates two Arab lists and Jewish Knesset member Ofer Cassif as Balad leader withdraws after pressure.",
        "url_fonte": "https://www.aljazeera.com/news/2026/10/2/israels-supreme-court-overturns-election-panel-ban-on-arab-parties?traffic_source=rss",
        "categoria": "Política (Al Jazeera)",
        "data_noticia": "02/10/2026 18:11"
      }
    },
    {
      "type": "Feature",
      "geometry": {
        "type": "Point",
        "coordinates": [
          34.8516,
          31.0461
        ]
      },
      "properties": {
        "titulo_evento": "Jerusalem Daily: Who gets to run in Israel’s elections?",
        "descricao": "Palestinians in Israel are asking whether they will have a fair say in the upcoming Israeli elections.",
        "url_fonte": "https://www.aljazeera.com/video/newsfeed/2026/10/2/jerusalem-daily-who-gets-to-run-in-israels-elections?traffic_source=rss",
        "categoria": "Política (Al Jazeera)",
        "data_noticia": "02/10/2026 17:30"
      }
    },
    {
      "type": "Feature",
      "geometry": {
        "type": "Point",
        "coordinates": [
          -51.9253,
          -14.235
        ]
      },
      "properties": {
        "titulo_evento": "How the Banco Master scandal injected chaos into Brazil’s presidential race",
        "descricao": "Figures across Brazil&#039;s political spectrum have been linked to the scandal in the midst of a key election.",
        "url_fonte": "https://www.aljazeera.com/features/longform/2026/10/2/how-the-banco-master-scandal-injected-chaos-into-brazils-presidential-race?traffic_source=rss",
        "categoria": "Política (Al Jazeera)",
        "data_noticia": "02/10/2026 16:36"
      }
    },
    {
      "type": "Feature",
      "geometry": {
        "type": "Point",
        "coordinates": [
          2.2137,
          46.2276
        ]
      },
      "properties": {
        "titulo_evento": "Riot police clash with students as education protests rage in France",
        "descricao": "About 735 schools have faced disruption as violent protests over standards and lack of teachers continue.",
        "url_fonte": "https://www.bbc.co.uk/news/articles/ck3r5dxxwqzpo?at_medium=RSS&at_campaign=rss",
        "categoria": "Política (BBC World)",
        "data_noticia": "02/10/2026 21:13"
      }
    },
    {
      "type": "Feature",
      "geometry": {
        "type": "Point",
        "coordinates": [
          31.1656,
          48.3794
        ]
      },
      "properties": {
        "titulo_evento": "Intensified Russian strikes are tearing Kyiv apart, warns mayor",
        "descricao": "Vitaliy Klitschko says Ukraine's capital is in a \"very dramatic situation\" as Russia hits critical infrastructure.",
        "url_fonte": "https://www.bbc.co.uk/news/articles/c6wyv44y4ywjo?at_medium=RSS&at_campaign=rss",
        "categoria": "Defesa/Conflito (BBC World)",
        "data_noticia": "02/10/2026 15:26"
      }
    },
    {
      "type": "Feature",
      "geometry": {
        "type": "Point",
        "coordinates": [
          31.1656,
          48.3794
        ]
      },
      "properties": {
        "titulo_evento": "Seoul warns 'further action' if Ukraine does not apologise over prisoner-of-war row",
        "descricao": "President Lee Jae Myung also accused Kyiv of \"attempting to provoke a war on the Korean Peninsula\".",
        "url_fonte": "https://www.bbc.co.uk/news/articles/cm1dld14weero?at_medium=RSS&at_campaign=rss",
        "categoria": "Defesa/Conflito (BBC World)",
        "data_noticia": "02/10/2026 03:09"
      }
    },
    {
      "type": "Feature",
      "geometry": {
        "type": "Point",
        "coordinates": [
          34.8516,
          31.0461
        ]
      },
      "properties": {
        "titulo_evento": "Netanyahu says Flydubai attacker had 'Islamist radical indoctrination'",
        "descricao": "Israel's prime minister says the pilot who tried to take over the Flydubai plane clearly intended to \"down the plane\".",
        "url_fonte": "https://www.bbc.co.uk/news/articles/crje8edqyej9o?at_medium=RSS&at_campaign=rss",
        "categoria": "Defesa/Conflito (BBC World)",
        "data_noticia": "01/10/2026 19:59"
      }
    },
    {
      "type": "Feature",
      "geometry": {
        "type": "Point",
        "coordinates": [
          105.3188,
          61.524
        ]
      },
      "properties": {
        "titulo_evento": "Putin warns West that Russia is ready to use every weapon to protect Kaliningrad",
        "descricao": "The Russian leader insists Moscow is \"not threatening anyone\" and is merely responding to statements by Western leaders.",
        "url_fonte": "https://www.bbc.co.uk/news/articles/cqg7k7v499jjo?at_medium=RSS&at_campaign=rss",
        "categoria": "Defesa/Conflito (BBC World)",
        "data_noticia": "01/10/2026 19:38"
      }
    },
    {
      "type": "Feature",
      "geometry": {
        "type": "Point",
        "coordinates": [
          -51.9253,
          -14.235
        ]
      },
      "properties": {
        "titulo_evento": "US suspends consular services in Brazil as Lula and Bolsonaro fight for election",
        "descricao": "President Luiz Inacio Lula da Silva and rival Flavio Bolsonaro are pulling no punches in a last-ditch effort to win voters ahead of Sunday's election in Brazil, where the US and Australia suspended consular services Friday over security concerns.",
        "url_fonte": "https://www.euronews.com/2026/10/02/us-suspends-consular-services-in-brazil-as-lula-and-bolsonaro-fight-for-election",
        "categoria": "Política (Euronews (Europa))",
        "data_noticia": "02/10/2026 22:40"
      }
    },
    {
      "type": "Feature",
      "geometry": {
        "type": "Point",
        "coordinates": [
          2.3522,
          48.8566
        ]
      },
      "properties": {
        "titulo_evento": "French students clash with police as school protests spread nationwide",
        "descricao": "Footage shows pupils in Paris, Toulouse and Lille clashing with police as they demand better school resources, warning protests will continue nationwide.",
        "url_fonte": "https://www.euronews.com/video/2026/10/02/french-students-clash-with-police-as-school-protests-spread-nationwide",
        "categoria": "Defesa/Conflito (Euronews (Europa))",
        "data_noticia": "02/10/2026 18:00"
      }
    },
    {
      "type": "Feature",
      "geometry": {
        "type": "Point",
        "coordinates": [
          104.1954,
          35.8617
        ]
      },
      "properties": {
        "titulo_evento": "5,000 drones turn China’s night sky into a giant light show",
        "descricao": "A fleet of 5,000 drones forms fighter jets, robots, planes and horses over Nanchang as China marks National Day with a spectacular night show.",
        "url_fonte": "https://www.euronews.com/video/2026/10/02/5000-drones-create-giant-shapes-over-nanchang-in-china",
        "categoria": "Defesa/Conflito (Euronews (Europa))",
        "data_noticia": "02/10/2026 16:00"
      }
    },
    {
      "type": "Feature",
      "geometry": {
        "type": "Point",
        "coordinates": [
          -74.006,
          40.7128
        ]
      },
      "properties": {
        "titulo_evento": "New York hosts secret dîner en blanc with Parisian belle époque theme",
        "descricao": "Thousands dressed in white gather at a secret New York location for Dîner en Blanc, an annual outdoor dinner with a Parisian Belle Époque theme.",
        "url_fonte": "https://www.euronews.com/video/2026/10/02/new-york-hosts-secret-diner-en-blanc-with-parisian-belle-epoque-theme",
        "categoria": "Política (Euronews (Europa))",
        "data_noticia": "02/10/2026 11:56"
      }
    },
    {
      "type": "Feature",
      "geometry": {
        "type": "Point",
        "coordinates": [
          53.688,
          32.4279
        ]
      },
      "properties": {
        "titulo_evento": "Trump vows to hit Iran 'very hard' if linked to flydubai pilot stabbing attack",
        "descricao": "Passengers described rushing the cockpit and a fight for control after the plane suddenly plummeted, losing around 17,000 feet of altitude in the span of a minute, according to the Flightradar24 website.",
        "url_fonte": "https://www.euronews.com/2026/10/02/trump-vows-to-hit-iran-very-hard-if-linked-to-flydubai-pilot-stabbing-attack",
        "categoria": "Defesa/Conflito (Euronews (Europa))",
        "data_noticia": "02/10/2026 07:57"
      }
    },
    {
      "type": "Feature",
      "geometry": {
        "type": "Point",
        "coordinates": [
          34.8516,
          31.0461
        ]
      },
      "properties": {
        "titulo_evento": "Protesters rally outside Dublin stadium over Ireland-Israel match",
        "descricao": "Around 200 protesters gathered near Dublin’s Aviva Stadium, calling on Ireland to boycott its upcoming Nations League match against Israel",
        "url_fonte": "https://www.euronews.com/video/2026/10/02/protesters-rally-outside-dublin-stadium-over-ireland-israel-match",
        "categoria": "Política (Euronews (Europa))",
        "data_noticia": "02/10/2026 07:50"
      }
    },
    {
      "type": "Feature",
      "geometry": {
        "type": "Point",
        "coordinates": [
          31.1656,
          48.3794
        ]
      },
      "properties": {
        "titulo_evento": "South Korea warns of 'further measures' if Ukraine refuses public apology over POW transfer disclosure",
        "descricao": "The POWs were captured by Ukrainian forces early last year after being deployed alongside thousands of North Korean troops to support Russia's war against Ukraine.",
        "url_fonte": "https://www.euronews.com/2026/10/02/south-korea-warns-of-further-measures-if-ukraine-refuses-public-apology-over-pow-transfer-",
        "categoria": "Defesa/Conflito (Euronews (Europa))",
        "data_noticia": "02/10/2026 07:34"
      }
    },
    {
      "type": "Feature",
      "geometry": {
        "type": "Point",
        "coordinates": [
          2.2137,
          46.2276
        ]
      },
      "properties": {
        "titulo_evento": "On the run for 20 years, Ugandan warlord Kony still 'active' within the Lord's Resistance Army",
        "descricao": "\nIn recent months, the eastern Central African Republic has been hit by several attacks attributed to the Lord’s Resistance Army (LRA), a Ugandan militia infamous for its massacres and mass abductions of children in the 1990s and 2000s. The group's l...",
        "url_fonte": "https://www.france24.com/en/africa/20261002-on-the-run-for-20-years-ugandan-warlord-kony-still-active-within-the-lord-s-resistance-army",
        "categoria": "Defesa/Conflito (France 24)",
        "data_noticia": "02/10/2026 19:31"
      }
    },
    {
      "type": "Feature",
      "geometry": {
        "type": "Point",
        "coordinates": [
          2.2137,
          46.2276
        ]
      },
      "properties": {
        "titulo_evento": "French Unrest: Are we witnessing a new 'Yellow Vests' movement?",
        "descricao": "\nIt's been 18 days since we first reported on isolated cases of schools protests at a high school in Rennes in Brittany, in Caen in Normandy and Villeneueve d'Asque on the suburbs of Lille. The complaints were similar in theme, overloaded timetables,...",
        "url_fonte": "https://www.france24.com/en/tv-shows/spotlight/20261002-french-unrest-are-we-witnessing-a-new-yellow-vests-movement",
        "categoria": "Defesa/Conflito (France 24)",
        "data_noticia": "02/10/2026 18:54"
      }
    },
    {
      "type": "Feature",
      "geometry": {
        "type": "Point",
        "coordinates": [
          -51.9253,
          -14.235
        ]
      },
      "properties": {
        "titulo_evento": "Brazil’s Lula gears up for ‘last dance’ with run for fourth presidential term",
        "descricao": "\nPresident Luiz Inacio Lula da Silva will stand for re-election in Brazil on Sunday. At 80, the former steelworker hopes to capitalise on his popularity and economic successes to win a fourth term in office but is neck-and-neck in the polls with far-...",
        "url_fonte": "https://www.france24.com/en/americas/20261002-brazil-s-lula-gears-up-for-last-dance-with-run-for-fourth-presidential-term",
        "categoria": "Política (France 24)",
        "data_noticia": "02/10/2026 16:20"
      }
    },
    {
      "type": "Feature",
      "geometry": {
        "type": "Point",
        "coordinates": [
          105.3188,
          61.524
        ]
      },
      "properties": {
        "titulo_evento": "'We have to close defence gaps urgently': EU Parliament Foreign Affairs Committee chief McAllister",
        "descricao": "\nWe sit down with David McAllister, the chair of the European Parliament’s Foreign Affairs Committee. He talks to us about the security threats facing Europe, and what defence gaps the EU urgently needs to close. For McAllister, the EU is \"not at war...",
        "url_fonte": "https://www.france24.com/en/tv-shows/talking-europe/20261002-we-have-to-close-defence-gaps-urgently-eu-parliament-foreign-affairs-committee-chief-mcallister",
        "categoria": "Defesa/Conflito (France 24)",
        "data_noticia": "02/10/2026 15:57"
      }
    },
    {
      "type": "Feature",
      "geometry": {
        "type": "Point",
        "coordinates": [
          -51.9253,
          -14.235
        ]
      },
      "properties": {
        "titulo_evento": "Brazil: The craze for candidate merch ahead of elections",
        "descricao": "\nNearly 159 million Brazilians will head to the polling booths on Sunday to vote in general elections. They will elect their new MPs, see two-thirds of the Senate change ranks and, most importantly, vote for their next president.Though the vote is he...",
        "url_fonte": "https://www.france24.com/en/video/20261002-brazil-the-craze-for-candidate-merch-ahead-of-elections",
        "categoria": "Política (France 24)",
        "data_noticia": "02/10/2026 15:17"
      }
    },
    {
      "type": "Feature",
      "geometry": {
        "type": "Point",
        "coordinates": [
          -3.7038,
          40.4168
        ]
      },
      "properties": {
        "titulo_evento": "Spanish lawmakers vote down affordable housing bills in blow to Sanchez’s government",
        "descricao": "\nDemonstrators protesting against Spain's housing crisis reacted with fury on Friday after the country's parliament rejected two bills put forward by the government that centre-left Prime Minister Pedro Sanchez hoped would address their concerns. Ren...",
        "url_fonte": "https://www.france24.com/en/europe/20261002-spanish-lawmakers-vote-down-affordable-housing-bills-in-blow-to-sanchez-s-government",
        "categoria": "Defesa/Conflito (France 24)",
        "data_noticia": "02/10/2026 15:12"
      }
    },
    {
      "type": "Feature",
      "geometry": {
        "type": "Point",
        "coordinates": [
          -51.9253,
          -14.235
        ]
      },
      "properties": {
        "titulo_evento": "Brazil: Who is presidential candidate Flavio Bolsonaro?",
        "descricao": "\nHe was still relatively unknown in Brazil just a few months ago. The 45-year-old senator is now neck and neck with incumbent President Lula in the polls for the upcoming presidential election. Flavio Bolsonaro's victory would add Brazil to the long ...",
        "url_fonte": "https://www.france24.com/en/video/20261002-brazil-who-is-presidential-candidate-flavio-bolsonaro",
        "categoria": "Defesa/Conflito (France 24)",
        "data_noticia": "02/10/2026 15:06"
      }
    },
    {
      "type": "Feature",
      "geometry": {
        "type": "Point",
        "coordinates": [
          34.8516,
          31.0461
        ]
      },
      "properties": {
        "titulo_evento": "Netanyahu warns of 'very heavy price' if any country found to be behind FlyDubai incident",
        "descricao": "\nIsraeli Prime Minister Benjamin Netanyahu on Friday warned that any country or organisation found to be responsible for the violent clash on board an Israel-bound FlyDubai flight would \"pay a very heavy price\". While Netanyahu has alleged the co-pil...",
        "url_fonte": "https://www.france24.com/en/middle-east/20261002-netanyahu-warns-of-very-heavy-price-if-any-country-found-to-be-behind-flydubai-incident",
        "categoria": "Defesa/Conflito (France 24)",
        "data_noticia": "02/10/2026 13:55"
      }
    },
    {
      "type": "Feature",
      "geometry": {
        "type": "Point",
        "coordinates": [
          2.2137,
          46.2276
        ]
      },
      "properties": {
        "titulo_evento": "Students and police clash as France struggles to quell school protests",
        "descricao": "\nRiot police clashed with high school ​students in cities across France on Friday, as President Emmanuel Macron's government battled to contain increasingly violent protests over classroom conditions and funding. The protest movement has forced the c...",
        "url_fonte": "https://www.france24.com/en/video/20261002-students-and-police-clash-as-france-struggles-to-quell-school-protests",
        "categoria": "Política (France 24)",
        "data_noticia": "02/10/2026 13:40"
      }
    },
    {
      "type": "Feature",
      "geometry": {
        "type": "Point",
        "coordinates": [
          -3.7038,
          40.4168
        ]
      },
      "properties": {
        "titulo_evento": "Spain housing protests rage ahead of key government vote",
        "descricao": "\nSpanish lawmakers are due to vote on Friday on two government housing decrees drawn up after an outcry over the eviction of an 87-year-old woman, with their passage in doubt. Several hundred people held raucous protests in Madrid and other Spanish c...",
        "url_fonte": "https://www.france24.com/en/video/20261002-spain-housing-protests-rage-ahead-of-key-government-vote",
        "categoria": "Política (France 24)",
        "data_noticia": "02/10/2026 12:54"
      }
    },
    {
      "type": "Feature",
      "geometry": {
        "type": "Point",
        "coordinates": [
          -51.9253,
          -14.235
        ]
      },
      "properties": {
        "titulo_evento": "Paraguay, a tax and political haven for Brazil's far right",
        "descricao": "\nOver the past five years, applications for residence permits submitted by Brazilians in Paraguay have more than doubled. Many of them are Bolsonaro supporters who are afraid October's presidential election will be won by incumbent leader Lula – whom...",
        "url_fonte": "https://www.france24.com/en/tv-shows/reporters/20261002-paraguay-a-tax-and-political-haven-for-brazil-s-far-right",
        "categoria": "Política (France 24)",
        "data_noticia": "02/10/2026 12:48"
      }
    },
    {
      "type": "Feature",
      "geometry": {
        "type": "Point",
        "coordinates": [
          -51.9253,
          -14.235
        ]
      },
      "properties": {
        "titulo_evento": "What's real and what's fake? How AI is impacting Brazil's election race",
        "descricao": "\nWith just two days to go before the first round of Brazil's presidential election, artificial intelligence is taking centre stage, whether it's a deepfake avatar of former president Jair Bolsonaro to support his son's candidacy, or an AI-generated w...",
        "url_fonte": "https://www.france24.com/en/tv-shows/focus/20261002-what-s-real-and-what-s-fake-how-ai-is-impacting-brazil-s-election-race",
        "categoria": "Política (France 24)",
        "data_noticia": "02/10/2026 11:34"
      }
    },
    {
      "type": "Feature",
      "geometry": {
        "type": "Point",
        "coordinates": [
          -77.0369,
          38.9072
        ]
      },
      "properties": {
        "titulo_evento": "G7 members will release 100 million barrels of diesel after US threatens export ban",
        "descricao": "\nMembers of the Group of Seven bloc of highly industrialised economies on Friday agreed to release 100 million barrels of diesel and crude oil from their reserves over four months, averting a potential US ban on diesel exports. The European Union had...",
        "url_fonte": "https://www.france24.com/en/europe/20261002-eu-fully-rejects-us-threat-to-ban-diesel-exports-unless-bloc-releases-more-fuel-stocks",
        "categoria": "Economia (France 24)",
        "data_noticia": "02/10/2026 11:15"
      }
    },
    {
      "type": "Feature",
      "geometry": {
        "type": "Point",
        "coordinates": [
          -51.9253,
          -14.235
        ]
      },
      "properties": {
        "titulo_evento": "Brazil's election: Lula or Bolsonaro Jr?",
        "descricao": "\nPRESS REVIEW – Friday, October 2: We look at reactions in the French papers after high school blockades turned violent across France. We also look ahead to Brazil's two-round presidential election, which begins this weekend. The electoral campaign c...",
        "url_fonte": "https://www.france24.com/en/tv-shows/press-review/20261002-brazil-s-election-lula-or-bolsonaro-jr",
        "categoria": "Defesa/Conflito (France 24)",
        "data_noticia": "02/10/2026 11:04"
      }
    },
    {
      "type": "Feature",
      "geometry": {
        "type": "Point",
        "coordinates": [
          127.05,
          40.0
        ]
      },
      "properties": {
        "titulo_evento": "North Korea fires ballistic missile into sea, Seoul says",
        "descricao": "North Korea fired a ballistic missile toward the sea off its east coast, the South Korean military has said.",
        "url_fonte": "https://www.dw.com/en/north-korea-fires-ballistic-missile-into-sea-seoul-says/a-79526243?maca=en-rss-en-all-1573-xml-mrss",
        "categoria": "Defesa/Conflito (DW (Alemanha/UE))",
        "data_noticia": "02/10/2026 22:06"
      }
    },
    {
      "type": "Feature",
      "geometry": {
        "type": "Point",
        "coordinates": [
          2.2137,
          46.2276
        ]
      },
      "properties": {
        "titulo_evento": "France: 400 schools closed as student protests continue",
        "descricao": "Police have made around 2,000 arrests and dozens of people have been injured as student protests spread across France. Ministers have called for a \"day of dialogue\" but students have called for further strike action.",
        "url_fonte": "https://www.dw.com/en/france-400-schools-closed-as-student-protests-continue/a-79512732?maca=en-rss-en-all-1573-xml-mrss",
        "categoria": "Defesa/Conflito (DW (Alemanha/UE))",
        "data_noticia": "02/10/2026 17:46"
      }
    },
    {
      "type": "Feature",
      "geometry": {
        "type": "Point",
        "coordinates": [
          -3.7038,
          40.4168
        ]
      },
      "properties": {
        "titulo_evento": "Spain's parliament rejects housing bill as protests continue",
        "descricao": "Spain's minority government suffered defeat in parliament as it tried to push through a pair of emergency measures aimed at making housing more affordable. A pensioner's eviction and protests led to the bid.",
        "url_fonte": "https://www.dw.com/en/spain-s-parliament-rejects-housing-bill-as-protests-continue/a-79522683?maca=en-rss-en-all-1573-xml-mrss",
        "categoria": "Política (DW (Alemanha/UE))",
        "data_noticia": "02/10/2026 16:39"
      }
    },
    {
      "type": "Feature",
      "geometry": {
        "type": "Point",
        "coordinates": [
          34.8516,
          31.0461
        ]
      },
      "properties": {
        "titulo_evento": "\"NAZA\": Israeli military issues statement on film",
        "descricao": "The award-winning documentary \"NAZA\" continues to spark controversy in Israel. The Israeli military has now published a multi-page statement calling the film's portrayal \"distorted.\"",
        "url_fonte": "https://www.dw.com/en/naza-israeli-military-issues-statement-on-film/a-79520483?maca=en-rss-en-all-1573-xml-mrss",
        "categoria": "Defesa/Conflito (DW (Alemanha/UE))",
        "data_noticia": "02/10/2026 15:55"
      }
    },
    {
      "type": "Feature",
      "geometry": {
        "type": "Point",
        "coordinates": [
          34.8516,
          31.0461
        ]
      },
      "properties": {
        "titulo_evento": "Israel's top court allows Arab parties to run in election",
        "descricao": "The ruling overturns a move by the Central Elections Committee to ban four parties. The conservative Muslim Ra'am party could serve as the kingmaker following the next elections.",
        "url_fonte": "https://www.dw.com/en/israel-s-top-court-allows-arab-parties-to-run-in-election/a-79519184?maca=en-rss-en-all-1573-xml-mrss",
        "categoria": "Política (DW (Alemanha/UE))",
        "data_noticia": "02/10/2026 15:53"
      }
    },
    {
      "type": "Feature",
      "geometry": {
        "type": "Point",
        "coordinates": [
          53.688,
          32.4279
        ]
      },
      "properties": {
        "titulo_evento": "Iran accused of blocking SIM cards, digital access to silence dissent",
        "descricao": "DW has spoken with several Iranians who say their SIM cards, bank access and online accounts were blocked until they deleted critical content or pledged to stop activism.",
        "url_fonte": "https://www.dw.com/en/iran-accused-of-blocking-sim-cards-digital-access-to-silence-dissent/a-79522440?maca=en-rss-en-all-1573-xml-mrss",
        "categoria": "Economia (DW (Alemanha/UE))",
        "data_noticia": "02/10/2026 15:19"
      }
    },
    {
      "type": "Feature",
      "geometry": {
        "type": "Point",
        "coordinates": [
          10.4515,
          51.1657
        ]
      },
      "properties": {
        "titulo_evento": "Germany's Franz Reindl elected new IIHF president",
        "descricao": "Franz Reindl has been elected president of ice hockey's world governing body. The former forward was a member of West Germany's Olympic bronze medal-winning team.",
        "url_fonte": "https://www.dw.com/en/germany-s-franz-reindl-elected-new-iihf-president/a-79521799?maca=en-rss-en-all-1573-xml-mrss",
        "categoria": "Defesa/Conflito (DW (Alemanha/UE))",
        "data_noticia": "02/10/2026 14:29"
      }
    },
    {
      "type": "Feature",
      "geometry": {
        "type": "Point",
        "coordinates": [
          127.05,
          40.0
        ]
      },
      "properties": {
        "titulo_evento": "North and South Korea trade accusations over landmines that injured three soldiers",
        "descricao": "A mine blast that injured three South Korean soldiers has renewed scrutiny of North Korea's actions along the border and raised questions about its strategic goals.",
        "url_fonte": "https://www.dw.com/en/north-and-south-korea-trade-accusations-over-landmines-that-injured-three-soldiers/a-79503854?maca=en-rss-en-all-1573-xml-mrss",
        "categoria": "Economia (DW (Alemanha/UE))",
        "data_noticia": "02/10/2026 13:30"
      }
    },
    {
      "type": "Feature",
      "geometry": {
        "type": "Point",
        "coordinates": [
          31.1656,
          48.3794
        ]
      },
      "properties": {
        "titulo_evento": "Ukraine, South Korea clash over transfer of 2 North Korean prisoners",
        "descricao": "A diplomatic scandal has erupted over two North Korean prisoners of war, with South Korea demanding an apology from Ukraine. What's been the reaction in Kyiv?",
        "url_fonte": "https://www.dw.com/en/ukraine-south-korea-clash-over-transfer-of-2-north-korean-prisoners/a-79508601?maca=en-rss-en-all-1573-xml-mrss",
        "categoria": "Defesa/Conflito (DW (Alemanha/UE))",
        "data_noticia": "02/10/2026 04:40"
      }
    },
    {
      "type": "Feature",
      "geometry": {
        "type": "Point",
        "coordinates": [
          21.8243,
          39.0742
        ]
      },
      "properties": {
        "titulo_evento": "EU ministers mull new ways to curb irregular migration",
        "descricao": "The proposals include setting up so-called return hubs outside the EU and strengthening the border agency Frontex. Greece has even proposed temporarily suspending asylum applications in emergency situations.",
        "url_fonte": "https://www.dw.com/en/eu-ministers-mull-new-ways-to-curb-irregular-migration/a-79509375?maca=en-rss-en-all-1573-xml-mrss",
        "categoria": "Política (DW (Alemanha/UE))",
        "data_noticia": "02/10/2026 00:54"
      }
    },
    {
      "type": "Feature",
      "geometry": {
        "type": "Point",
        "coordinates": [
          12.5674,
          41.8719
        ]
      },
      "properties": {
        "titulo_evento": "17 countries join forces to oppose EU budget cuts",
        "descricao": "Italy and Romania lead push to preserve EU spending for agriculture and regional payouts. ",
        "url_fonte": "https://www.politico.eu/article/17-countries-join-forces-to-oppose-eu-budget-cuts/?utm_source=RSS_Feed&utm_medium=RSS&utm_campaign=RSS_Syndication",
        "categoria": "Política (Politico Europe)",
        "data_noticia": "02/10/2026 14:39"
      }
    },
    {
      "type": "Feature",
      "geometry": {
        "type": "Point",
        "coordinates": [
          2.2137,
          46.2276
        ]
      },
      "properties": {
        "titulo_evento": "G7 agrees to release oil reserves after U.S. push",
        "descricao": "France said the agreement meant the U.S. would not ban the export of diesel. ",
        "url_fonte": "https://www.politico.eu/article/trump-says-europe-agrees-to-release-massive-amount-of-diesel/?utm_source=RSS_Feed&utm_medium=RSS&utm_campaign=RSS_Syndication",
        "categoria": "Economia (Politico Europe)",
        "data_noticia": "02/10/2026 14:16"
      }
    },
    {
      "type": "Feature",
      "geometry": {
        "type": "Point",
        "coordinates": [
          104.1954,
          35.8617
        ]
      },
      "properties": {
        "titulo_evento": "China Resumes Curbs on Fuel Exports, Tightening Global Energy Markets",
        "descricao": "China has started limiting exports of refined products again as its own inventories of crude oil and refined products have dwindled.",
        "url_fonte": "https://www.nytimes.com/2026/10/02/business/china-exports-diesel-energy.html",
        "categoria": "Economia (NYT Business)",
        "data_noticia": "02/10/2026 18:18"
      }
    },
    {
      "type": "Feature",
      "geometry": {
        "type": "Point",
        "coordinates": [
          31.1656,
          48.3794
        ]
      },
      "properties": {
        "titulo_evento": "Russia’s Latest Propaganda? A.I.-Generated War Songs.",
        "descricao": "Russians are creating and spreading music glorifying the invasion of Ukraine, using platforms built in the United States.",
        "url_fonte": "https://www.nytimes.com/2026/10/02/technology/russian-propaganda-ai-war-songs.html",
        "categoria": "Defesa/Conflito (NYT Business)",
        "data_noticia": "02/10/2026 14:40"
      }
    },
    {
      "type": "Feature",
      "geometry": {
        "type": "Point",
        "coordinates": [
          105.3188,
          61.524
        ]
      },
      "properties": {
        "titulo_evento": "US Sanctions A7, a Russia Firm That Helps Sidestep Economic Restrictions",
        "descricao": "The move followed reports detailing how A7, a Moscow firm, uses shell companies around the world to move funds for clients who are themselves subject to sanctions.",
        "url_fonte": "https://www.nytimes.com/2026/10/01/business/a7-russia-us-sanctions.html",
        "categoria": "Economia (NYT Business)",
        "data_noticia": "03/10/2026 00:34"
      }
    },
    {
      "type": "Feature",
      "geometry": {
        "type": "Point",
        "coordinates": [
          31.1656,
          48.3794
        ]
      },
      "properties": {
        "titulo_evento": "Ukraine war briefing: Zelenskyy says new ballistic missile used in combat - The Guardian",
        "descricao": "<a href=\"https://news.google.com/rss/articles/CBMiugFBVV95cUxQU2xnMjdWajl6OGE0ZmZZMWN4d1ZPc3lBQ3JfYjF1bFozMXg4NU5nSXhOZEkwV2FmRzlsU1hkUDRHbndyRWhqdDVxZHJ4Xzk4c1V6ZG0wdXhvemRfWFpUMlMwTHppQ3JZdTVfQURVSktoSG1reVQycWw0MFRqTklFR0s3YnRmcXFLek1HcE9OaWJZS09h...",
        "url_fonte": "https://news.google.com/rss/articles/CBMiugFBVV95cUxQU2xnMjdWajl6OGE0ZmZZMWN4d1ZPc3lBQ3JfYjF1bFozMXg4NU5nSXhOZEkwV2FmRzlsU1hkUDRHbndyRWhqdDVxZHJ4Xzk4c1V6ZG0wdXhvemRfWFpUMlMwTHppQ3JZdTVfQURVSktoSG1reVQycWw0MFRqTklFR0s3YnRmcXFLek1HcE9OaWJZS09hTEVwTUdtc0ZnMkpBS3NLV2lLcTlsTnpzV0tlT0FncXB6RXIwbVE?oc=5",
        "categoria": "Defesa/Conflito (Google News Military)",
        "data_noticia": "02/10/2026 23:42"
      }
    },
    {
      "type": "Feature",
      "geometry": {
        "type": "Point",
        "coordinates": [
          127.05,
          40.0
        ]
      },
      "properties": {
        "titulo_evento": "South Korea’s military says North Korea fired projectile toward its eastern waters - ABC News - Breaking News, Latest News and Videos",
        "descricao": "<a href=\"https://news.google.com/rss/articles/CBMisgFBVV95cUxPT0dEckxjSExzWkowUzZGWmxQX0o1QlptRmpoRmZMXzlrUDVXb3FDeFVNelUwb1NjNUJFc0dXbnNaWWMtakZuZXVDY1cteGMzdjBhOHlDVGVWai0tbktYWkJuWDJyMC16WHlOb0x3WnRTZklXZThjZldSYXJBeXJlVVM4T2l3STA5NkFtRE1pVEFVbFpz...",
        "url_fonte": "https://news.google.com/rss/articles/CBMisgFBVV95cUxPT0dEckxjSExzWkowUzZGWmxQX0o1QlptRmpoRmZMXzlrUDVXb3FDeFVNelUwb1NjNUJFc0dXbnNaWWMtakZuZXVDY1cteGMzdjBhOHlDVGVWai0tbktYWkJuWDJyMC16WHlOb0x3WnRTZklXZThjZldSYXJBeXJlVVM4T2l3STA5NkFtRE1pVEFVbFpzZVVMSUVHZV9ROEZ2Z29hOV8wM2FLZmRjckU1SzZn0gG3AUFVX3lxTE9Qb3dVQmdIZDk0b2NuRXhYMHpZU1UzT05OZEsyRGdxbnZ1N1Nubkg4SnM3UmM4aE1EaWZDN0NyY18zQnpOV0NJdXo5OWlyaG44WHVzV2JOcHV4TEU0VGpRSGUwbzA3NEVadmQ5U2l5YkRzVUxJNUtWY19BZEUyTTN5QWhQRElRanZvdjZnVFFyVWlERzd2czFFMThRLVNBU3VyT2xjcVVNTGhHSmRHajFOOGpNUXFQVQ?oc=5",
        "categoria": "Defesa/Conflito (Google News Military)",
        "data_noticia": "02/10/2026 22:34"
      }
    },
    {
      "type": "Feature",
      "geometry": {
        "type": "Point",
        "coordinates": [
          53.688,
          32.4279
        ]
      },
      "properties": {
        "titulo_evento": "Pilot stabbing further unsettles region shaken by U.S.-Iran war - PBS",
        "descricao": "<a href=\"https://news.google.com/rss/articles/CBMingFBVV95cUxPMlpEWFg0N2tsR1ROY1duSXdGTTJsdGtVUzVBVC02QzZPYm5vZk02VEFESFp4eVFOcklZb0JTV1lLUm9nZmE1TkNYcjlFbS1xUnZHQUYzMkphS0k2X2t0Q3JleWI1YlVmckhvLVZVc2UwYmNlTUlTMVh2Z3h1bnlnOEVZdHpCYnEtMnNGcVNFamRqb0VO...",
        "url_fonte": "https://news.google.com/rss/articles/CBMingFBVV95cUxPMlpEWFg0N2tsR1ROY1duSXdGTTJsdGtVUzVBVC02QzZPYm5vZk02VEFESFp4eVFOcklZb0JTV1lLUm9nZmE1TkNYcjlFbS1xUnZHQUYzMkphS0k2X2t0Q3JleWI1YlVmckhvLVZVc2UwYmNlTUlTMVh2Z3h1bnlnOEVZdHpCYnEtMnNGcVNFamRqb0VOQ3g0RzZPY0hKQdIBowFBVV95cUxNUG9xbHZJN0dzb3lOcUNyaG15M2VWUmxHNkk5OE5md0VudnJUdDNfSW01OXdlcnM3OXB0Q1l6bHh6NE5oS1VyV3hzcUdmWkdCeHhxQmMyMVN6WjZJOEhjM3YxNUY1ZEZMUlFLVEVOVm5DVkZ3ZFNpejQzQ2pIcExrTmgyZTJjbHRNbC1nWWlOZUhxVHNoMzMtejlJNmctOXRKUndB?oc=5",
        "categoria": "Defesa/Conflito (Google News Military)",
        "data_noticia": "02/10/2026 17:39"
      }
    },
    {
      "type": "Feature",
      "geometry": {
        "type": "Point",
        "coordinates": [
          53.688,
          32.4279
        ]
      },
      "properties": {
        "titulo_evento": "Want To Stop the Iran War? Don't Pay the Bill - Reason Magazine",
        "descricao": "<a href=\"https://news.google.com/rss/articles/CBMif0FVX3lxTE1hTkljd1JCZEtPMlNHWnBqZXhVb0JUUHRPT0k1MUcxSzhJcEFqcmFoR01wbGp4NUFBS3ZPemNaM2VWZS1sd2xHQVgzMjNLX1RpbF9LVXdoT2c5TGFaSHlQV1lxTDV0VG5ZS19rOF93RXJ2UnplTHdGMUFvYzg5NVk?oc=5\" target=\"_blank\">Want T...",
        "url_fonte": "https://news.google.com/rss/articles/CBMif0FVX3lxTE1hTkljd1JCZEtPMlNHWnBqZXhVb0JUUHRPT0k1MUcxSzhJcEFqcmFoR01wbGp4NUFBS3ZPemNaM2VWZS1sd2xHQVgzMjNLX1RpbF9LVXdoT2c5TGFaSHlQV1lxTDV0VG5ZS19rOF93RXJ2UnplTHdGMUFvYzg5NVk?oc=5",
        "categoria": "Defesa/Conflito (Google News Military)",
        "data_noticia": "02/10/2026 19:10"
      }
    },
    {
      "type": "Feature",
      "geometry": {
        "type": "Point",
        "coordinates": [
          -74.006,
          40.7128
        ]
      },
      "properties": {
        "titulo_evento": "Ukraine Reports First Combat Use of Its Own Ballistic Missile - The New York Times",
        "descricao": "<a href=\"https://news.google.com/rss/articles/CBMiiwFBVV95cUxNTGlPdENnRW43dXFyd0x2ZlcwSnVLMVNkNFl3MEhzR2tPYjY1VGpLdUIyZjAxZzNpeFY5SEhIRmllMmdGRXdVRnBobVJ4bmRCT28xM29iSDBfRUZOa2owTFk2UGRnLTlZcnFkbW1JWFd3ZkFFa2ZKLXlVMnlrM0RBdjFJOXQ1WjVyNFRF?oc=5\" targe...",
        "url_fonte": "https://news.google.com/rss/articles/CBMiiwFBVV95cUxNTGlPdENnRW43dXFyd0x2ZlcwSnVLMVNkNFl3MEhzR2tPYjY1VGpLdUIyZjAxZzNpeFY5SEhIRmllMmdGRXdVRnBobVJ4bmRCT28xM29iSDBfRUZOa2owTFk2UGRnLTlZcnFkbW1JWFd3ZkFFa2ZKLXlVMnlrM0RBdjFJOXQ1WjVyNFRF?oc=5",
        "categoria": "Defesa/Conflito (Google News Military)",
        "data_noticia": "02/10/2026 14:30"
      }
    },
    {
      "type": "Feature",
      "geometry": {
        "type": "Point",
        "coordinates": [
          127.05,
          40.0
        ]
      },
      "properties": {
        "titulo_evento": "[Breaking] North Korea fires unidentified projectile toward East Sea: JCS - The Korea Herald",
        "descricao": "<a href=\"https://news.google.com/rss/articles/CBMiV0FVX3lxTE9VdnBRQjc2UF9VcUp1V281YTY1NmJtMUlRbGpKVEM1MThBWGJveV8zOF9FTXprclVOLWVlWHhxTTQ3cjgwNGtKekY4OVFWVlJxY0ZUTnowSQ?oc=5\" target=\"_blank\">[Breaking] North Korea fires unidentified projectile toward...",
        "url_fonte": "https://news.google.com/rss/articles/CBMiV0FVX3lxTE9VdnBRQjc2UF9VcUp1V281YTY1NmJtMUlRbGpKVEM1MThBWGJveV8zOF9FTXprclVOLWVlWHhxTTQ3cjgwNGtKekY4OVFWVlJxY0ZUTnowSQ?oc=5",
        "categoria": "Defesa/Conflito (Google News Military)",
        "data_noticia": "02/10/2026 21:49"
      }
    },
    {
      "type": "Feature",
      "geometry": {
        "type": "Point",
        "coordinates": [
          -74.006,
          40.7128
        ]
      },
      "properties": {
        "titulo_evento": "Fighting Intensifies in Yemen, Raising Fresh Fears of All-Out War - The New York Times",
        "descricao": "<a href=\"https://news.google.com/rss/articles/CBMimgFBVV95cUxNTmlxQjEtWS04S2hkc2t4a3VKRWxSZUg1SVl2ZE80ZTN2eUdDUTVPTEZPWmJUYWRhMVAySW1JMEcyaUNPRHpDdkZyTTU1YXRWcG05eGU1aUJWeUNCck1PTjNZZHVjUkFrb2FsNGRlSGN1SkxTZ0Z6aWdZLVp3Mm0tQ0ZPV2VMeHE1NVM4Rkc3ZmMtTnFj...",
        "url_fonte": "https://news.google.com/rss/articles/CBMimgFBVV95cUxNTmlxQjEtWS04S2hkc2t4a3VKRWxSZUg1SVl2ZE80ZTN2eUdDUTVPTEZPWmJUYWRhMVAySW1JMEcyaUNPRHpDdkZyTTU1YXRWcG05eGU1aUJWeUNCck1PTjNZZHVjUkFrb2FsNGRlSGN1SkxTZ0Z6aWdZLVp3Mm0tQ0ZPV2VMeHE1NVM4Rkc3ZmMtTnFjX201QTFB?oc=5",
        "categoria": "Defesa/Conflito (Google News Military)",
        "data_noticia": "02/10/2026 18:06"
      }
    },
    {
      "type": "Feature",
      "geometry": {
        "type": "Point",
        "coordinates": [
          127.05,
          40.0
        ]
      },
      "properties": {
        "titulo_evento": "North Korea fires ballistic missile towards the sea, South Korea says - Al Jazeera",
        "descricao": "<a href=\"https://news.google.com/rss/articles/CBMirgFBVV95cUxOaFVmemVUU2lMbHoxVS1yNHJGWXFQUExrSWUtb1lxNHUyYkJCWGRSaEdnelZSSGRWdi04TUt0RnQxVEktVEpaUGx3TnBpdGFqeEJTNGlxdm9uV0Z0MnNqZUxNRUR0eWpSMGJpb0t0dlFBOWxyb212OWN5eU9rSnRyUlctYlJERFRDdEdxMXdLLXJNRlZI...",
        "url_fonte": "https://news.google.com/rss/articles/CBMirgFBVV95cUxOaFVmemVUU2lMbHoxVS1yNHJGWXFQUExrSWUtb1lxNHUyYkJCWGRSaEdnelZSSGRWdi04TUt0RnQxVEktVEpaUGx3TnBpdGFqeEJTNGlxdm9uV0Z0MnNqZUxNRUR0eWpSMGJpb0t0dlFBOWxyb212OWN5eU9rSnRyUlctYlJERFRDdEdxMXdLLXJNRlZIMXFvbDNvQkwzcGZtdzJtaml2RTkxR0JTemfSAbMBQVVfeXFMUHhtOV9YSWhnZ1dYZmlJTU1qMDRhNXpVQmMxbnM5TTBVU1ZhZWhrdUQySHgyOHE5Qnh1UEllVWNDRzNjbEREbnV5LXFMRllyc1hOb19FYnNpZWZDN0F5NWNJUGZwQWcyM3VyYnllQzhYMGhia0hnQS1SVDQ2Z0VvR0o1SXZoTTdnaHl2RFVYWlB4VnV6blJ6bEJOeDNLOXlXc1NNOGRtNi1rV0drWGFxZUdTQ1k?oc=5",
        "categoria": "Defesa/Conflito (Google News Military)",
        "data_noticia": "02/10/2026 23:59"
      }
    },
    {
      "type": "Feature",
      "geometry": {
        "type": "Point",
        "coordinates": [
          38.1157,
          20.2802
        ]
      },
      "properties": {
        "titulo_evento": "Saudis plan assault on Houthis to break Red Sea chokehold - Reuters",
        "descricao": "<a href=\"https://news.google.com/rss/articles/CBMiqgFBVV95cUxPUVJialJyWHg0VzlHXzBiaTU3elZhbWEtQzd0TjhNOGNsWFFZNTYyMGFqODJGcVc3aVBaYVY3QkRzWWpEZDlQNEpJeVp6ZjMxYkZKYi1nZ0FUenFUSFRFRTNCb3NaTmdCaTJ1WWV1RmlqcmhSZGtsZWZobE5jSHp3RkJiVXpueWdVOHJmbDhzUEEzVXB6...",
        "url_fonte": "https://news.google.com/rss/articles/CBMiqgFBVV95cUxPUVJialJyWHg0VzlHXzBiaTU3elZhbWEtQzd0TjhNOGNsWFFZNTYyMGFqODJGcVc3aVBaYVY3QkRzWWpEZDlQNEpJeVp6ZjMxYkZKYi1nZ0FUenFUSFRFRTNCb3NaTmdCaTJ1WWV1RmlqcmhSZGtsZWZobE5jSHp3RkJiVXpueWdVOHJmbDhzUEEzVXB6OF9jYkJHcnpfQklTNDVHZ20yS1J6QQ?oc=5",
        "categoria": "Política (Google News Military)",
        "data_noticia": "02/10/2026 18:13"
      }
    },
    {
      "type": "Feature",
      "geometry": {
        "type": "Point",
        "coordinates": [
          127.05,
          40.0
        ]
      },
      "properties": {
        "titulo_evento": "North Korea test-fires missile as tensions grow over border mine blasts - Seattle Post-Intelligencer",
        "descricao": "<a href=\"https://news.google.com/rss/articles/CBMilwFBVV95cUxOaF80anQ2a0N6ZnQxVlJTNU9yVk5vVjZuUy0yZ2xlYkJfSjhLbVI4bzNRMkg1d2E3UkRHbjAxeEoxMlBwYWNCY1dRYXRTRVN3RWNxdktXc2xWZldYV3JNb0xBRl93Mk9Cd2huX3k5T09rX0c4Z3FkSUd6VXNqTmVTa3V6bTJ4XzVyQmtxdTV6MlR0a3hD...",
        "url_fonte": "https://news.google.com/rss/articles/CBMilwFBVV95cUxOaF80anQ2a0N6ZnQxVlJTNU9yVk5vVjZuUy0yZ2xlYkJfSjhLbVI4bzNRMkg1d2E3UkRHbjAxeEoxMlBwYWNCY1dRYXRTRVN3RWNxdktXc2xWZldYV3JNb0xBRl93Mk9Cd2huX3k5T09rX0c4Z3FkSUd6VXNqTmVTa3V6bTJ4XzVyQmtxdTV6MlR0a3hDNU44?oc=5",
        "categoria": "Defesa/Conflito (Google News Military)",
        "data_noticia": "02/10/2026 23:24"
      }
    },
    {
      "type": "Feature",
      "geometry": {
        "type": "Point",
        "coordinates": [
          53.688,
          32.4279
        ]
      },
      "properties": {
        "titulo_evento": "US sends third aircraft carrier to Middle East amid stalemate in Iran war - The Guardian",
        "descricao": "<a href=\"https://news.google.com/rss/articles/CBMikgFBVV95cUxOeG1vM25faW5LcklvY082VWw2bHJ2MFdzR1NRekV1TzI2SzloOTFrZGhPTEVyWlY4bGpiRXprNWVhTUxqbF8zc3pxNGFFZzJIalNteWs5UV9oWkI3V1dBX2hjckVwejBiZmtSVnFTUUVVeFdGS19nZE9kOVB4OTUwUUcxOWZzY25FWXJPNXg3WGprdw?o...",
        "url_fonte": "https://news.google.com/rss/articles/CBMikgFBVV95cUxOeG1vM25faW5LcklvY082VWw2bHJ2MFdzR1NRekV1TzI2SzloOTFrZGhPTEVyWlY4bGpiRXprNWVhTUxqbF8zc3pxNGFFZzJIalNteWs5UV9oWkI3V1dBX2hjckVwejBiZmtSVnFTUUVVeFdGS19nZE9kOVB4OTUwUUcxOWZzY25FWXJPNXg3WGprdw?oc=5",
        "categoria": "Defesa/Conflito (Google News Military)",
        "data_noticia": "02/10/2026 14:39"
      }
    },
    {
      "type": "Feature",
      "geometry": {
        "type": "Point",
        "coordinates": [
          -74.006,
          40.7128
        ]
      },
      "properties": {
        "titulo_evento": "China Resumes Curbs on Fuel Exports, Tightening Global Energy Markets - The New York Times",
        "descricao": "<a href=\"https://news.google.com/rss/articles/CBMiggFBVV95cUxQMG9mN3BIeUw3clNoaTdsYkpwdUt2YmM2QmU0aE9Nem0zTXFkUE82ZGJMSG9wRmx4N0J5Y3BlMEktMzEwLUlxTmpZRmlZRG5qVkRzbUZHaDh1YVU3TFltNFZXZEs5NjE2Z0UtSEYwQ2swR0diRTkxYjBCZF96NXlrLXhB?oc=5\" target=\"_blank\">C...",
        "url_fonte": "https://news.google.com/rss/articles/CBMiggFBVV95cUxQMG9mN3BIeUw3clNoaTdsYkpwdUt2YmM2QmU0aE9Nem0zTXFkUE82ZGJMSG9wRmx4N0J5Y3BlMEktMzEwLUlxTmpZRmlZRG5qVkRzbUZHaDh1YVU3TFltNFZXZEs5NjE2Z0UtSEYwQ2swR0diRTkxYjBCZF96NXlrLXhB?oc=5",
        "categoria": "Economia (Google News Markets)",
        "data_noticia": "02/10/2026 18:18"
      }
    },
    {
      "type": "Feature",
      "geometry": {
        "type": "Point",
        "coordinates": [
          -77.0369,
          38.9072
        ]
      },
      "properties": {
        "titulo_evento": "Blackstone's new defense tech company and more capital markets action to highlight - Washington Technology",
        "descricao": "<a href=\"https://news.google.com/rss/articles/CBMi9AFBVV95cUxNN0lTenpqcnpMWHh2WUFfMHRtS2VaUGlPbDh5REphNnpCQmZmS0pZY3duNUxJVnc2bGVrUkhqRTVOeUJKRXZybjA2dTVKc0RGb3dhOWdEQUd2d1RkQXBsY1U3Zm9SR2U2LXhhV0psUnF0SzBIRENDYks3R2J6X2RHZGR5UW4wQ3dhblZLTVlDWlJRRlA1...",
        "url_fonte": "https://news.google.com/rss/articles/CBMi9AFBVV95cUxNN0lTenpqcnpMWHh2WUFfMHRtS2VaUGlPbDh5REphNnpCQmZmS0pZY3duNUxJVnc2bGVrUkhqRTVOeUJKRXZybjA2dTVKc0RGb3dhOWdEQUd2d1RkQXBsY1U3Zm9SR2U2LXhhV0psUnF0SzBIRENDYks3R2J6X2RHZGR5UW4wQ3dhblZLTVlDWlJRRlA1akw2Tl9pb0xIUlVqcmhpMUZ6NGJrcFhkNlpDeUtfVnl1a3F3a1Y3dXdrTkdKbzdKX0xhZGQwUG9TUG1nR0dqV1Badms2MktrRU1EWWg1Q2tQWUlEUGJYRWVKT2RKWUZk?oc=5",
        "categoria": "Defesa/Conflito (Google News Markets)",
        "data_noticia": "02/10/2026 17:30"
      }
    },
    {
      "type": "Feature",
      "geometry": {
        "type": "Point",
        "coordinates": [
          -58.3816,
          -34.6037
        ]
      },
      "properties": {
        "titulo_evento": "Investment announcements fail to calm markets as country risk hits 2026 high - Buenos Aires Herald",
        "descricao": "<a href=\"https://news.google.com/rss/articles/CBMitwFBVV95cUxQT1RGWk5zeElfNkxENFB2aUt5TTZ5M3c5eV81a2hSTXA5UjRMbGVIY0M1SHNPa09mMG9oN1ZDcnNRV0hMaGsyWVJSYm1zdkQ4MW9SRFdXT1VyTERRZUQ5ckItV3ZVZWNRcmdPTE80U28zQW9yWHFGQTJLcUF3Q1JLS0ZOOHpSYjU5U3FUNjh3b2c3QU1k...",
        "url_fonte": "https://news.google.com/rss/articles/CBMitwFBVV95cUxQT1RGWk5zeElfNkxENFB2aUt5TTZ5M3c5eV81a2hSTXA5UjRMbGVIY0M1SHNPa09mMG9oN1ZDcnNRV0hMaGsyWVJSYm1zdkQ4MW9SRFdXT1VyTERRZUQ5ckItV3ZVZWNRcmdPTE80U28zQW9yWHFGQTJLcUF3Q1JLS0ZOOHpSYjU5U3FUNjh3b2c3QU1kRlB0MjFBMVJDZDY5MzJQVXhqcTA4WUg1ZXdQTWdXaHRKaE0?oc=5",
        "categoria": "Economia (Google News Markets)",
        "data_noticia": "02/10/2026 20:18"
      }
    },
    {
      "type": "Feature",
      "geometry": {
        "type": "Point",
        "coordinates": [
          -77.0369,
          38.9072
        ]
      },
      "properties": {
        "titulo_evento": "G-7 agrees to release oil reserves to reduce fuel prices after U.S. pressure - The Washington Post",
        "descricao": "<a href=\"https://news.google.com/rss/articles/CBMivgFBVV95cUxNRFIxeWtpUXU5RzJsMjFIbEI2eU1pSkJyVlVleWROa0t5NXNHLUJjcDJOd0ZMeTdQSUNEYkUzbk9yOWd5WVItVUtTMTg4a3NKUEZWUWVJWFc5c2JUb01LdmV5MzdmdWN6dU5BTDNCTUNDZlNKTHJ2QlMtX3l0cHhoa3VzY2J5cXZST2hIZmktN3Ewckhj...",
        "url_fonte": "https://news.google.com/rss/articles/CBMivgFBVV95cUxNRFIxeWtpUXU5RzJsMjFIbEI2eU1pSkJyVlVleWROa0t5NXNHLUJjcDJOd0ZMeTdQSUNEYkUzbk9yOWd5WVItVUtTMTg4a3NKUEZWUWVJWFc5c2JUb01LdmV5MzdmdWN6dU5BTDNCTUNDZlNKTHJ2QlMtX3l0cHhoa3VzY2J5cXZST2hIZmktN3EwckhjT3NJckM3VHdUSkFtYXQ0c1huMk9XQjEtZ3BBS1MwVFBMb1YzSlBYNWF3?oc=5",
        "categoria": "Economia (Google News Markets)",
        "data_noticia": "03/10/2026 00:06"
      }
    },
    {
      "type": "Feature",
      "geometry": {
        "type": "Point",
        "coordinates": [
          -74.006,
          40.7128
        ]
      },
      "properties": {
        "titulo_evento": "New York City says the World Cup delivered a $2B boost to its economy - Gothamist",
        "descricao": "<a href=\"https://news.google.com/rss/articles/CBMimwFBVV95cUxOeHoxM2xoUVc4TzZ3ZnBMRXFSOGJYTVpsaDFiUFRBSjk4VUQ5ZzJtTV8wdjFHejBLdWFUbDVNTHgxdnpHSmFfNUdHNkNzbFNoOGtoV2dfLWE5TVA0eV85SVdXYUtIbmxCMThXdWNDQm53bUU1Zm9GYWR2Z01wU1F1b1ZvVmJQMWRiSWF6Z1BtVGRBQTlJ...",
        "url_fonte": "https://news.google.com/rss/articles/CBMimwFBVV95cUxOeHoxM2xoUVc4TzZ3ZnBMRXFSOGJYTVpsaDFiUFRBSjk4VUQ5ZzJtTV8wdjFHejBLdWFUbDVNTHgxdnpHSmFfNUdHNkNzbFNoOGtoV2dfLWE5TVA0eV85SVdXYUtIbmxCMThXdWNDQm53bUU1Zm9GYWR2Z01wU1F1b1ZvVmJQMWRiSWF6Z1BtVGRBQTlJZWQwcGUyRQ?oc=5",
        "categoria": "Economia (Google News Markets)",
        "data_noticia": "02/10/2026 18:06"
      }
    },
    {
      "type": "Feature",
      "geometry": {
        "type": "Point",
        "coordinates": [
          53.688,
          32.4279
        ]
      },
      "properties": {
        "titulo_evento": "The Iran war is driving inflation higher — and it's not just because of oil - Yahoo Finance",
        "descricao": "<a href=\"https://news.google.com/rss/articles/CBMiygFBVV95cUxNNmtHalF6OWo2N3hlSEtEY1p0U2hPX0kySmNrdERDenZMLWlVZXZaR2hQVzZsM25IWmtELW4wd191QWZaT3Ywd2dVY1E3MVJteEZNWnVLdlhMZFZGRV9fLVplNFFHVFlGRV9nUUI2Y052VUg0Q0VmdHd1dTJKZFMwRkY2b1lYLWNiQ1FydXVESnozYTNj...",
        "url_fonte": "https://news.google.com/rss/articles/CBMiygFBVV95cUxNNmtHalF6OWo2N3hlSEtEY1p0U2hPX0kySmNrdERDenZMLWlVZXZaR2hQVzZsM25IWmtELW4wd191QWZaT3Ywd2dVY1E3MVJteEZNWnVLdlhMZFZGRV9fLVplNFFHVFlGRV9nUUI2Y052VUg0Q0VmdHd1dTJKZFMwRkY2b1lYLWNiQ1FydXVESnozYTNjS3BFYzJ5YU5oV0hQUkgxMlktUW1tQUUxMlVtZ1FYeDRyUVBwOFZHb2QxV2QteVNUanVOblhB?oc=5",
        "categoria": "Defesa/Conflito (Google News Markets)",
        "data_noticia": "02/10/2026 10:00"
      }
    },
    {
      "type": "Feature",
      "geometry": {
        "type": "Point",
        "coordinates": [
          10.4515,
          51.1657
        ]
      },
      "properties": {
        "titulo_evento": "Germany's Economic Growth May Double in 2024, Says Bundesbank - Global Banking & Finance Review",
        "descricao": "<a href=\"https://news.google.com/rss/articles/CBMinAFBVV95cUxOcmNrR0w0T21OMHVtM1NDaG51bDFkWW1RNHpUR0V0WlJpN21TZUF4LUhMOVR6S1c4TXhNdDZ4RUFpc3pBQ05QQUoweUpXVWhVMXp5YzJTZ3UxUVFFUVQ1ZDlBbDdkZUMtcG1JWGNYX3VsRVo2WmtnYWRkRnVkcDZLS0FHWENGZ2E3RGxrd0h1MHI4UV9T...",
        "url_fonte": "https://news.google.com/rss/articles/CBMinAFBVV95cUxOcmNrR0w0T21OMHVtM1NDaG51bDFkWW1RNHpUR0V0WlJpN21TZUF4LUhMOVR6S1c4TXhNdDZ4RUFpc3pBQ05QQUoweUpXVWhVMXp5YzJTZ3UxUVFFUVQ1ZDlBbDdkZUMtcG1JWGNYX3VsRVo2WmtnYWRkRnVkcDZLS0FHWENGZ2E3RGxrd0h1MHI4UV9Ta1V6a05CMDU?oc=5",
        "categoria": "Economia (Google News Markets)",
        "data_noticia": "02/10/2026 19:47"
      }
    }
  ]
}