{
    "type": "FeatureCollection",
    "features": [
        {
            "type": "Feature",
            "geometry": {
                "type": "Point",
                "coordinates": [
                    0,
                    0
                ]
            },
            "properties": {
                "titulo": "Russia denies epidemic risk after pneumonic plague researcher dies in Siberia | DW News",
                "canal": "DW News",
                "url_video": "https://www.youtube.com/embed/CnSchH04SSc?autoplay=1&mute=1",
                "thumbnail": "https://i.ytimg.com/vi/CnSchH04SSc/hqdefault.jpg",
                "data": "2026-10-06T22:41:58Z",
                "aoi": "Ucrânia e Leste"
            }
        },
        {
            "type": "Feature",
            "geometry": {
                "type": "Point",
                "coordinates": [
                    0,
                    0
                ]
            },
            "properties": {
                "titulo": "Lithuania&#39;s prime minister comments on Russian nuclear threat | DW News",
                "canal": "DW News",
                "url_video": "https://www.youtube.com/embed/kHkWQPOxzZw?autoplay=1&mute=1",
                "thumbnail": "https://i.ytimg.com/vi/kHkWQPOxzZw/hqdefault.jpg",
                "data": "2026-10-06T18:15:08Z",
                "aoi": "Ucrânia e Leste"
            }
        },
        {
            "type": "Feature",
            "geometry": {
                "type": "Point",
                "coordinates": [
                    0,
                    0
                ]
            },
            "properties": {
                "titulo": "Could Russia&#39;s deadly plague lab incident spark another pandemic? | DW News",
                "canal": "DW News",
                "url_video": "https://www.youtube.com/embed/1FB7hXX_Hpo?autoplay=1&mute=1",
                "thumbnail": "https://i.ytimg.com/vi/1FB7hXX_Hpo/hqdefault.jpg",
                "data": "2026-10-06T02:46:34Z",
                "aoi": "Ucrânia e Leste"
            }
        },
        {
            "type": "Feature",
            "geometry": {
                "type": "Point",
                "coordinates": [
                    0,
                    0
                ]
            },
            "properties": {
                "titulo": "At least two killed in Kyiv as Russia launches ‘massive’ strike on Ukraine",
                "canal": "Al Jazeera English",
                "url_video": "https://www.youtube.com/embed/GwiOYSbKzOg?autoplay=1&mute=1",
                "thumbnail": "https://i.ytimg.com/vi/GwiOYSbKzOg/hqdefault.jpg",
                "data": "2026-10-07T07:45:16Z",
                "aoi": "Ucrânia e Leste"
            }
        },
        {
            "type": "Feature",
            "geometry": {
                "type": "Point",
                "coordinates": [
                    0,
                    0
                ]
            },
            "properties": {
                "titulo": "Is Europe preparing for a wider war with Russia?",
                "canal": "Al Jazeera English",
                "url_video": "https://www.youtube.com/embed/Eu2x-iSwevA?autoplay=1&mute=1",
                "thumbnail": "https://i.ytimg.com/vi/Eu2x-iSwevA/hqdefault.jpg",
                "data": "2026-10-06T16:16:10Z",
                "aoi": "Ucrânia e Leste"
            }
        },
        {
            "type": "Feature",
            "geometry": {
                "type": "Point",
                "coordinates": [
                    0,
                    0
                ]
            },
            "properties": {
                "titulo": "Russia and Ukraine escalate attacks as drones target Moscow and strikes hit Kharkiv",
                "canal": "Al Jazeera English",
                "url_video": "https://www.youtube.com/embed/JSwZSi3djCU?autoplay=1&mute=1",
                "thumbnail": "https://i.ytimg.com/vi/JSwZSi3djCU/hqdefault.jpg",
                "data": "2026-10-06T09:38:37Z",
                "aoi": "Ucrânia e Leste"
            }
        },
        {
            "type": "Feature",
            "geometry": {
                "type": "Point",
                "coordinates": [
                    0,
                    0
                ]
            },
            "properties": {
                "titulo": "Russia plague fears after death of lab worker at research centre | BBC News",
                "canal": "BBC News",
                "url_video": "https://www.youtube.com/embed/cZ2x8KMRndw?autoplay=1&mute=1",
                "thumbnail": "https://i.ytimg.com/vi/cZ2x8KMRndw/hqdefault.jpg",
                "data": "2026-10-06T23:14:02Z",
                "aoi": "Ucrânia e Leste"
            }
        },
        {
            "type": "Feature",
            "geometry": {
                "type": "Point",
                "coordinates": [
                    0,
                    0
                ]
            },
            "properties": {
                "titulo": "Is Pneumonic plague spreading in Russia? | BBC News",
                "canal": "BBC News",
                "url_video": "https://www.youtube.com/embed/k4bzbzEPWqo?autoplay=1&mute=1",
                "thumbnail": "https://i.ytimg.com/vi/k4bzbzEPWqo/hqdefault.jpg",
                "data": "2026-10-06T19:00:24Z",
                "aoi": "Ucrânia e Leste"
            }
        },
        {
            "type": "Feature",
            "geometry": {
                "type": "Point",
                "coordinates": [
                    0,
                    0
                ]
            },
            "properties": {
                "titulo": "US &#39;watching closely&#39; after plague researcher dies in Russia, Rubio says. #BBCNews",
                "canal": "BBC News",
                "url_video": "https://www.youtube.com/embed/umFibr6mlss?autoplay=1&mute=1",
                "thumbnail": "https://i.ytimg.com/vi/umFibr6mlss/hqdefault.jpg",
                "data": "2026-10-05T22:04:13Z",
                "aoi": "Ucrânia e Leste"
            }
        },
        {
            "type": "Feature",
            "geometry": {
                "type": "Point",
                "coordinates": [
                    0,
                    0
                ]
            },
            "properties": {
                "titulo": "Fresh wave of Russian attacks on Ukraine kills at least eight",
                "canal": "Reuters",
                "url_video": "https://www.youtube.com/embed/UqmkUGNd1-o?autoplay=1&mute=1",
                "thumbnail": "https://i.ytimg.com/vi/UqmkUGNd1-o/hqdefault.jpg",
                "data": "2026-10-07T09:43:07Z",
                "aoi": "Ucrânia e Leste"
            }
        },
        {
            "type": "Feature",
            "geometry": {
                "type": "Point",
                "coordinates": [
                    0,
                    0
                ]
            },
            "properties": {
                "titulo": "US testing counter-drone tech at Mexico border as cartel drone use rises",
                "canal": "Reuters",
                "url_video": "https://www.youtube.com/embed/K7NwUuZ4UuM?autoplay=1&mute=1",
                "thumbnail": "https://i.ytimg.com/vi/K7NwUuZ4UuM/hqdefault.jpg",
                "data": "2026-10-05T17:54:08Z",
                "aoi": "Ucrânia e Leste"
            }
        },
        {
            "type": "Feature",
            "geometry": {
                "type": "Point",
                "coordinates": [
                    0,
                    0
                ]
            },
            "properties": {
                "titulo": "US testing counter-drone tech at Mexico border as cartel drone use rises",
                "canal": "Reuters",
                "url_video": "https://www.youtube.com/embed/ve6epswcua8?autoplay=1&mute=1",
                "thumbnail": "https://i.ytimg.com/vi/ve6epswcua8/hqdefault.jpg",
                "data": "2026-10-05T18:00:51Z",
                "aoi": "Ucrânia e Leste"
            }
        },
        {
            "type": "Feature",
            "geometry": {
                "type": "Point",
                "coordinates": [
                    0,
                    0
                ]
            },
            "properties": {
                "titulo": "Ethiopian PM Abiy demands Red Sea access as tensions with neighbours rise",
                "canal": "Al Jazeera English",
                "url_video": "https://www.youtube.com/embed/BATa9QPSY80?autoplay=1&mute=1",
                "thumbnail": "https://i.ytimg.com/vi/BATa9QPSY80/hqdefault.jpg",
                "data": "2026-10-06T08:24:15Z",
                "aoi": "Irão e Médio Oriente"
            }
        },
        {
            "type": "Feature",
            "geometry": {
                "type": "Point",
                "coordinates": [
                    0,
                    0
                ]
            },
            "properties": {
                "titulo": "Can Yemen retake territory seized by the Ansar Allah Houthis? | Inside Story",
                "canal": "Al Jazeera English",
                "url_video": "https://www.youtube.com/embed/8qYMCQ8fNvs?autoplay=1&mute=1",
                "thumbnail": "https://i.ytimg.com/vi/8qYMCQ8fNvs/hqdefault.jpg",
                "data": "2026-10-05T18:51:34Z",
                "aoi": "Irão e Médio Oriente"
            }
        },
        {
            "type": "Feature",
            "geometry": {
                "type": "Point",
                "coordinates": [
                    0,
                    0
                ]
            },
            "properties": {
                "titulo": "UK Green Party vote calls for Israel to be ‘wiped out’, Israeli analyst says",
                "canal": "Al Jazeera English",
                "url_video": "https://www.youtube.com/embed/IeTOEh9YRLU?autoplay=1&mute=1",
                "thumbnail": "https://i.ytimg.com/vi/IeTOEh9YRLU/hqdefault.jpg",
                "data": "2026-10-05T14:54:37Z",
                "aoi": "Irão e Médio Oriente"
            }
        },
        {
            "type": "Feature",
            "geometry": {
                "type": "Point",
                "coordinates": [
                    0,
                    0
                ]
            },
            "properties": {
                "titulo": "Life under sniper fire from Iran-backed Houthis in Yemen and other stories | Global News Podcast",
                "canal": "BBC News",
                "url_video": "https://www.youtube.com/embed/BHsA43KwLHI?autoplay=1&mute=1",
                "thumbnail": "https://i.ytimg.com/vi/BHsA43KwLHI/hqdefault.jpg",
                "data": "2026-10-06T20:15:33Z",
                "aoi": "Irão e Médio Oriente"
            }
        },
        {
            "type": "Feature",
            "geometry": {
                "type": "Point",
                "coordinates": [
                    0,
                    0
                ]
            },
            "properties": {
                "titulo": "Inside Yemen&#39;s front-line city as Houthis battle for control | BBC News",
                "canal": "BBC News",
                "url_video": "https://www.youtube.com/embed/GYngCqCHg_Y?autoplay=1&mute=1",
                "thumbnail": "https://i.ytimg.com/vi/GYngCqCHg_Y/hqdefault.jpg",
                "data": "2026-10-05T15:00:11Z",
                "aoi": "Irão e Médio Oriente"
            }
        },
        {
            "type": "Feature",
            "geometry": {
                "type": "Point",
                "coordinates": [
                    0,
                    0
                ]
            },
            "properties": {
                "titulo": "Inside one of the world’s most secretive countries",
                "canal": "Reuters",
                "url_video": "https://www.youtube.com/embed/Kb5w5siRzi4?autoplay=1&mute=1",
                "thumbnail": "https://i.ytimg.com/vi/Kb5w5siRzi4/hqdefault.jpg",
                "data": "2026-10-05T11:53:42Z",
                "aoi": "Irão e Médio Oriente"
            }
        },
        {
            "type": "Feature",
            "geometry": {
                "type": "Point",
                "coordinates": [
                    0,
                    0
                ]
            },
            "properties": {
                "titulo": "Explosion shutters Venezuela’s second-largest oil refinery | AJ #shorts",
                "canal": "Al Jazeera English",
                "url_video": "https://www.youtube.com/embed/9C8Z750kVCs?autoplay=1&mute=1",
                "thumbnail": "https://i.ytimg.com/vi/9C8Z750kVCs/hqdefault.jpg",
                "data": "2026-10-07T02:18:41Z",
                "aoi": "Venezuela e Cuba"
            }
        },
        {
            "type": "Feature",
            "geometry": {
                "type": "Point",
                "coordinates": [
                    0,
                    0
                ]
            },
            "properties": {
                "titulo": "Doha Debates: Should we trust the news?",
                "canal": "Al Jazeera English",
                "url_video": "https://www.youtube.com/embed/8sgMtFNEkws?autoplay=1&mute=1",
                "thumbnail": "https://i.ytimg.com/vi/8sgMtFNEkws/hqdefault.jpg",
                "data": "2026-10-06T14:00:31Z",
                "aoi": "Venezuela e Cuba"
            }
        },
        {
            "type": "Feature",
            "geometry": {
                "type": "Point",
                "coordinates": [
                    0,
                    0
                ]
            },
            "properties": {
                "titulo": "Lithuania&#39;s prime minister comments on Russian nuclear threat | DW News",
                "canal": "DW News",
                "url_video": "https://www.youtube.com/embed/kHkWQPOxzZw?autoplay=1&mute=1",
                "thumbnail": "https://i.ytimg.com/vi/kHkWQPOxzZw/hqdefault.jpg",
                "data": "2026-10-06T18:15:08Z",
                "aoi": "Global"
            }
        },
        {
            "type": "Feature",
            "geometry": {
                "type": "Point",
                "coordinates": [
                    0,
                    0
                ]
            },
            "properties": {
                "titulo": "Civilian ships in the crosshairs of Russia&#39;s war on Ukraine | DW News",
                "canal": "DW News",
                "url_video": "https://www.youtube.com/embed/hBn5x_1JQjg?autoplay=1&mute=1",
                "thumbnail": "https://i.ytimg.com/vi/hBn5x_1JQjg/hqdefault.jpg",
                "data": "2026-10-07T03:30:00Z",
                "aoi": "Global"
            }
        },
        {
            "type": "Feature",
            "geometry": {
                "type": "Point",
                "coordinates": [
                    0,
                    0
                ]
            },
            "properties": {
                "titulo": "Germany&#39;s spy chief warns risk of &#39;violent conflict&#39; with Russia | DW News",
                "canal": "DW News",
                "url_video": "https://www.youtube.com/embed/T5_tLTGz-Xs?autoplay=1&mute=1",
                "thumbnail": "https://i.ytimg.com/vi/T5_tLTGz-Xs/hqdefault.jpg",
                "data": "2026-10-05T22:30:04Z",
                "aoi": "Global"
            }
        },
        {
            "type": "Feature",
            "geometry": {
                "type": "Point",
                "coordinates": [
                    0,
                    0
                ]
            },
            "properties": {
                "titulo": "At least two killed in Kyiv as Russia launches ‘massive’ strike on Ukraine",
                "canal": "Al Jazeera English",
                "url_video": "https://www.youtube.com/embed/GwiOYSbKzOg?autoplay=1&mute=1",
                "thumbnail": "https://i.ytimg.com/vi/GwiOYSbKzOg/hqdefault.jpg",
                "data": "2026-10-07T07:45:16Z",
                "aoi": "Global"
            }
        },
        {
            "type": "Feature",
            "geometry": {
                "type": "Point",
                "coordinates": [
                    0,
                    0
                ]
            },
            "properties": {
                "titulo": "Russia and Ukraine escalate attacks as drones target Moscow and strikes hit Kharkiv",
                "canal": "Al Jazeera English",
                "url_video": "https://www.youtube.com/embed/JSwZSi3djCU?autoplay=1&mute=1",
                "thumbnail": "https://i.ytimg.com/vi/JSwZSi3djCU/hqdefault.jpg",
                "data": "2026-10-06T09:38:37Z",
                "aoi": "Global"
            }
        },
        {
            "type": "Feature",
            "geometry": {
                "type": "Point",
                "coordinates": [
                    0,
                    0
                ]
            },
            "properties": {
                "titulo": "How October 7 attacks accelerated Israel&#39;s shift further to the right",
                "canal": "Al Jazeera English",
                "url_video": "https://www.youtube.com/embed/a5w-ebFawKA?autoplay=1&mute=1",
                "thumbnail": "https://i.ytimg.com/vi/a5w-ebFawKA/hqdefault.jpg",
                "data": "2026-10-06T19:58:31Z",
                "aoi": "Global"
            }
        },
        {
            "type": "Feature",
            "geometry": {
                "type": "Point",
                "coordinates": [
                    0,
                    0
                ]
            },
            "properties": {
                "titulo": "Inside Yemen&#39;s front-line city as Houthis battle for control | BBC News",
                "canal": "BBC News",
                "url_video": "https://www.youtube.com/embed/GYngCqCHg_Y?autoplay=1&mute=1",
                "thumbnail": "https://i.ytimg.com/vi/GYngCqCHg_Y/hqdefault.jpg",
                "data": "2026-10-05T15:00:11Z",
                "aoi": "Global"
            }
        },
        {
            "type": "Feature",
            "geometry": {
                "type": "Point",
                "coordinates": [
                    0,
                    0
                ]
            },
            "properties": {
                "titulo": "Fighting intensifies between Iran-backed Houthis and Saudi-led government forces in Yemen | BBC News",
                "canal": "BBC News",
                "url_video": "https://www.youtube.com/embed/_VCvO53AO3M?autoplay=1&mute=1",
                "thumbnail": "https://i.ytimg.com/vi/_VCvO53AO3M/hqdefault.jpg",
                "data": "2026-10-06T22:01:30Z",
                "aoi": "Global"
            }
        },
        {
            "type": "Feature",
            "geometry": {
                "type": "Point",
                "coordinates": [
                    0,
                    0
                ]
            },
            "properties": {
                "titulo": "Life under sniper fire from Iran-backed Houthis in Yemen and other stories | Global News Podcast",
                "canal": "BBC News",
                "url_video": "https://www.youtube.com/embed/BHsA43KwLHI?autoplay=1&mute=1",
                "thumbnail": "https://i.ytimg.com/vi/BHsA43KwLHI/hqdefault.jpg",
                "data": "2026-10-06T20:15:33Z",
                "aoi": "Global"
            }
        },
        {
            "type": "Feature",
            "geometry": {
                "type": "Point",
                "coordinates": [
                    0,
                    0
                ]
            },
            "properties": {
                "titulo": "LIVE: Israel marks three years since October 7 Hamas attack",
                "canal": "Reuters",
                "url_video": "https://www.youtube.com/embed/8WdTZiXHDEQ?autoplay=1&mute=1",
                "thumbnail": "https://i.ytimg.com/vi/8WdTZiXHDEQ/hqdefault_live.jpg",
                "data": "2026-10-07T10:30:15Z",
                "aoi": "Global"
            }
        },
        {
            "type": "Feature",
            "geometry": {
                "type": "Point",
                "coordinates": [
                    0,
                    0
                ]
            },
            "properties": {
                "titulo": "Oil flows &#39;have reduced Iran&#39;s leverage&#39;",
                "canal": "Reuters",
                "url_video": "https://www.youtube.com/embed/lkt1ufctUbw?autoplay=1&mute=1",
                "thumbnail": "https://i.ytimg.com/vi/lkt1ufctUbw/hqdefault.jpg",
                "data": "2026-10-06T11:37:30Z",
                "aoi": "Global"
            }
        },
        {
            "type": "Feature",
            "geometry": {
                "type": "Point",
                "coordinates": [
                    0,
                    0
                ]
            },
            "properties": {
                "titulo": "💋🐟 &#39;Below&#39; cast on getting &#39;screeched in&#39; while filming",
                "canal": "Reuters",
                "url_video": "https://www.youtube.com/embed/EZx3LJTomlc?autoplay=1&mute=1",
                "thumbnail": "https://i.ytimg.com/vi/EZx3LJTomlc/hqdefault.jpg",
                "data": "2026-10-05T13:53:13Z",
                "aoi": "Global"
            }
        }
    ]
}